[{"OBJECT_NAME":"ONEWEB-0027","OBJECT_ID":"2020-020J","EPOCH":"2025-12-02T06:02:09.790080","MEAN_MOTION":13.17650188,"ECCENTRICITY":0.00014472,"INCLINATION":87.9127,"RA_OF_ASC_NODE":44.9997,"ARG_OF_PERICENTER":90.2154,"MEAN_ANOMALY":269.9143,"EPHEMERIS_TYPE":0,"CLASSIFICATION_TYPE":"U","NORAD_CAT_ID":45432,"ELEMENT_SET_NO":999,"REV_AT_EPOCH":28042,"BSTAR":0.00030204566,"MEAN_MOTION_DOT":1.3e-6,"MEAN_MOTION_DDOT":0},{"OBJECT_NAME":"ONEWEB-0064","OBJECT_ID":"2020-020K","EPOCH":"2025-12-02T06:19:45.287040","MEAN_MOTION":13.1141676,"ECCENTRICITY":0.00015836,"INCLINATION":87.8859,"RA_OF_ASC_NODE":60.2877,"ARG_OF_PERICENTER":97.6041,"MEAN_ANOMALY":262.5267,"EPHEMERIS_TYPE":0,"CLASSIFICATION_TYPE":"U","NORAD_CAT_ID":45433,"ELEMENT_SET_NO":999,"REV_AT_EPOCH":27687,"BSTAR":-0.001410923,"MEAN_MOTION_DOT":-4.87e-6,"MEAN_MOTION_DDOT":0},{"OBJECT_NAME":"ONEWEB-0018","OBJECT_ID":"2020-020L","EPOCH":"2025-12-02T05:16:17.763456","MEAN_MOTION":13.11418497,"ECCENTRICITY":0.00018094,"INCLINATION":87.8872,"RA_OF_ASC_NODE":60.2852,"ARG_OF_PERICENTER":103.4276,"MEAN_ANOMALY":256.7053,"EPHEMERIS_TYPE":0,"CLASSIFICATION_TYPE":"U","NORAD_CAT_ID":45434,"ELEMENT_SET_NO":999,"REV_AT_EPOCH":27681,"BSTAR":0.0011385946,"MEAN_MOTION_DOT":4.16e-6,"MEAN_MOTION_DDOT":0},{"OBJECT_NAME":"ONEWEB-0083","OBJECT_ID":"2020-020M","EPOCH":"2025-12-02T05:02:51.479520","MEAN_MOTION":13.11418146,"ECCENTRICITY":0.00016664,"INCLINATION":87.8872,"RA_OF_ASC_NODE":60.2761,"ARG_OF_PERICENTER":102.1258,"MEAN_ANOMALY":258.0057,"EPHEMERIS_TYPE":0,"CLASSIFICATION_TYPE":"U","NORAD_CAT_ID":45435,"ELEMENT_SET_NO":999,"REV_AT_EPOCH":27685,"BSTAR":8.6478219e-5,"MEAN_MOTION_DOT":4.3e-7,"MEAN_MOTION_DDOT":0},{"OBJECT_NAME":"ONEWEB-0095","OBJECT_ID":"2020-020N","EPOCH":"2025-12-02T06:39:28.891872","MEAN_MOTION":13.11419559,"ECCENTRICITY":9.32e-5,"INCLINATION":87.8864,"RA_OF_ASC_NODE":60.275,"ARG_OF_PERICENTER":114.193,"MEAN_ANOMALY":245.9295,"EPHEMERIS_TYPE":0,"CLASSIFICATION_TYPE":"U","NORAD_CAT_ID":45436,"ELEMENT_SET_NO":999,"REV_AT_EPOCH":27686,"BSTAR":-0.0013017847,"MEAN_MOTION_DOT":-4.49e-6,"MEAN_MOTION_DDOT":0},{"OBJECT_NAME":"ONEWEB-0092","OBJECT_ID":"2020-020P","EPOCH":"2025-12-02T05:59:00.269088","MEAN_MOTION":13.11414418,"ECCENTRICITY":0.00014565,"INCLINATION":87.8869,"RA_OF_ASC_NODE":60.2789,"ARG_OF_PERICENTER":108.3927,"MEAN_ANOMALY":251.736,"EPHEMERIS_TYPE":0,"CLASSIFICATION_TYPE":"U","NORAD_CAT_ID":45437,"ELEMENT_SET_NO":999,"REV_AT_EPOCH":27697,"BSTAR":-2.1565242e-5,"MEAN_MOTION_DOT":5.0e-8,"MEAN_MOTION_DDOT":0},{"OBJECT_NAME":"ONEWEB-0085","OBJECT_ID":"2020-020Q","EPOCH":"2025-12-02T06:51:30.175488","MEAN_MOTION":13.11419658,"ECCENTRICITY":0.00016247,"INCLINATION":87.8864,"RA_OF_ASC_NODE":60.2807,"ARG_OF_PERICENTER":104.2613,"MEAN_ANOMALY":255.8696,"EPHEMERIS_TYPE":0,"CLASSIFICATION_TYPE":"U","NORAD_CAT_ID":45438,"ELEMENT_SET_NO":999,"REV_AT_EPOCH":27686,"BSTAR":2.144296e-6,"MEAN_MOTION_DOT":1.3e-7,"MEAN_MOTION_DDOT":0},{"OBJECT_NAME":"ONEWEB-0096","OBJECT_ID":"2020-020R","EPOCH":"2025-12-02T05:04:04.954944","MEAN_MOTION":13.11419344,"ECCENTRICITY":0.00018023,"INCLINATION":87.8871,"RA_OF_ASC_NODE":60.2748,"ARG_OF_PERICENTER":105.6099,"MEAN_ANOMALY":254.5228,"EPHEMERIS_TYPE":0,"CLASSIFICATION_TYPE":"U","NORAD_CAT_ID":45439,"ELEMENT_SET_NO":999,"REV_AT_EPOCH":27684,"BSTAR":0.00016540451,"MEAN_MOTION_DOT":7.1e-7,"MEAN_MOTION_DDOT":0},{"OBJECT_NAME":"ONEWEB-0037","OBJECT_ID":"2020-020S","EPOCH":"2025-12-02T06:25:51.166848","MEAN_MOTION":13.11418075,"ECCENTRICITY":0.00015588,"INCLINATION":87.888,"RA_OF_ASC_NODE":60.2331,"ARG_OF_PERICENTER":105.4817,"MEAN_ANOMALY":254.6483,"EPHEMERIS_TYPE":0,"CLASSIFICATION_TYPE":"U","NORAD_CAT_ID":45440,"ELEMENT_SET_NO":999,"REV_AT_EPOCH":27688,"BSTAR":-0.0013210402,"MEAN_MOTION_DOT":-4.55e-6,"MEAN_MOTION_DDOT":0},{"OBJECT_NAME":"ONEWEB-0042","OBJECT_ID":"2020-020T","EPOCH":"2025-12-02T06:39:05.069664","MEAN_MOTION":13.11419758,"ECCENTRICITY":0.00016447,"INCLINATION":87.8874,"RA_OF_ASC_NODE":60.2616,"ARG_OF_PERICENTER":108.1988,"MEAN_ANOMALY":251.932,"EPHEMERIS_TYPE":0,"CLASSIFICATION_TYPE":"U","NORAD_CAT_ID":45441,"ELEMENT_SET_NO":999,"REV_AT_EPOCH":27685,"BSTAR":-0.0008356807,"MEAN_MOTION_DOT":-2.83e-6,"MEAN_MOTION_DDOT":0},{"OBJECT_NAME":"ONEWEB-0098","OBJECT_ID":"2020-020U","EPOCH":"2025-12-02T06:33:10.053792","MEAN_MOTION":13.11416246,"ECCENTRICITY":0.00016821,"INCLINATION":87.8871,"RA_OF_ASC_NODE":60.2747,"ARG_OF_PERICENTER":100.9325,"MEAN_ANOMALY":259.1992,"EPHEMERIS_TYPE":0,"CLASSIFICATION_TYPE":"U","NORAD_CAT_ID":45442,"ELEMENT_SET_NO":999,"REV_AT_EPOCH":27683,"BSTAR":-0.001154187,"MEAN_MOTION_DOT":-3.96e-6,"MEAN_MOTION_DDOT":0},{"OBJECT_NAME":"ONEWEB-0055","OBJECT_ID":"2020-020V","EPOCH":"2025-12-02T06:08:45.940992","MEAN_MOTION":13.11415681,"ECCENTRICITY":0.00016835,"INCLINATION":87.8867,"RA_OF_ASC_NODE":60.2781,"ARG_OF_PERICENTER":102.9131,"MEAN_ANOMALY":257.2185,"EPHEMERIS_TYPE":0,"CLASSIFICATION_TYPE":"U","NORAD_CAT_ID":45443,"ELEMENT_SET_NO":999,"REV_AT_EPOCH":27680,"BSTAR":-0.00057000376,"MEAN_MOTION_DOT":-1.89e-6,"MEAN_MOTION_DDOT":0},{"OBJECT_NAME":"ONEWEB-0093","OBJECT_ID":"2020-020W","EPOCH":"2025-12-02T05:33:35.507808","MEAN_MOTION":13.11416366,"ECCENTRICITY":0.00018889,"INCLINATION":87.8871,"RA_OF_ASC_NODE":60.27,"ARG_OF_PERICENTER":116.284,"MEAN_ANOMALY":243.8483,"EPHEMERIS_TYPE":0,"CLASSIFICATION_TYPE":"U","NORAD_CAT_ID":45444,"ELEMENT_SET_NO":999,"REV_AT_EPOCH":27686,"BSTAR":0.0016357196,"MEAN_MOTION_DOT":5.92e-6,"MEAN_MOTION_DDOT":0},{"OBJECT_NAME":"ONEWEB-0029","OBJECT_ID":"2020-020X","EPOCH":"2025-12-02T05:56:33.909216","MEAN_MOTION":13.11414127,"ECCENTRICITY":0.00018025,"INCLINATION":87.8869,"RA_OF_ASC_NODE":60.2792,"ARG_OF_PERICENTER":106.1252,"MEAN_ANOMALY":254.0074,"EPHEMERIS_TYPE":0,"CLASSIFICATION_TYPE":"U","NORAD_CAT_ID":45445,"ELEMENT_SET_NO":999,"REV_AT_EPOCH":27684,"BSTAR":0.00026049798,"MEAN_MOTION_DOT":1.05e-6,"MEAN_MOTION_DDOT":0},{"OBJECT_NAME":"ONEWEB-0068","OBJECT_ID":"2020-020Y","EPOCH":"2025-12-02T05:33:12.205728","MEAN_MOTION":13.11415967,"ECCENTRICITY":0.00018374,"INCLINATION":87.8872,"RA_OF_ASC_NODE":60.2718,"ARG_OF_PERICENTER":106.4251,"MEAN_ANOMALY":253.7079,"EPHEMERIS_TYPE":0,"CLASSIFICATION_TYPE":"U","NORAD_CAT_ID":45446,"ELEMENT_SET_NO":999,"REV_AT_EPOCH":27678,"BSTAR":0.0012619152,"MEAN_MOTION_DOT":4.6e-6,"MEAN_MOTION_DDOT":0},{"OBJECT_NAME":"ONEWEB-0046","OBJECT_ID":"2020-020Z","EPOCH":"2025-12-02T05:21:10.592064","MEAN_MOTION":13.11418272,"ECCENTRICITY":0.00016349,"INCLINATION":87.8869,"RA_OF_ASC_NODE":60.2812,"ARG_OF_PERICENTER":112.9152,"MEAN_ANOMALY":247.2149,"EPHEMERIS_TYPE":0,"CLASSIFICATION_TYPE":"U","NORAD_CAT_ID":45447,"ELEMENT_SET_NO":999,"REV_AT_EPOCH":27679,"BSTAR":0.0014450324,"MEAN_MOTION_DOT":5.25e-6,"MEAN_MOTION_DDOT":0},{"OBJECT_NAME":"ONEWEB-0063","OBJECT_ID":"2020-020AA","EPOCH":"2025-12-02T06:02:39.452928","MEAN_MOTION":13.11413191,"ECCENTRICITY":0.00015351,"INCLINATION":87.887,"RA_OF_ASC_NODE":60.2735,"ARG_OF_PERICENTER":111.1652,"MEAN_ANOMALY":248.964,"EPHEMERIS_TYPE":0,"CLASSIFICATION_TYPE":"U","NORAD_CAT_ID":45448,"ELEMENT_SET_NO":999,"REV_AT_EPOCH":27688,"BSTAR":-0.00032760844,"MEAN_MOTION_DOT":-1.03e-6,"MEAN_MOTION_DDOT":0},{"OBJECT_NAME":"ONEWEB-0019","OBJECT_ID":"2020-020AB","EPOCH":"2025-12-02T05:23:36.637440","MEAN_MOTION":13.11600504,"ECCENTRICITY":0.00020474,"INCLINATION":87.8855,"RA_OF_ASC_NODE":60.289,"ARG_OF_PERICENTER":98.89,"MEAN_ANOMALY":261.246,"EPHEMERIS_TYPE":0,"CLASSIFICATION_TYPE":"U","NORAD_CAT_ID":45449,"ELEMENT_SET_NO":999,"REV_AT_EPOCH":27672,"BSTAR":0.0015076442,"MEAN_MOTION_DOT":5.48e-6,"MEAN_MOTION_DDOT":0},{"OBJECT_NAME":"ONEWEB-0094","OBJECT_ID":"2020-020AC","EPOCH":"2025-12-02T05:23:18.212640","MEAN_MOTION":13.176516,"ECCENTRICITY":0.00018812,"INCLINATION":87.9135,"RA_OF_ASC_NODE":45.0002,"ARG_OF_PERICENTER":100.1363,"MEAN_ANOMALY":259.9981,"EPHEMERIS_TYPE":0,"CLASSIFICATION_TYPE":"U","NORAD_CAT_ID":45450,"ELEMENT_SET_NO":999,"REV_AT_EPOCH":28037,"BSTAR":-1.6240002e-5,"MEAN_MOTION_DOT":7.0e-8,"MEAN_MOTION_DDOT":0},{"OBJECT_NAME":"ONEWEB-0087","OBJECT_ID":"2020-020AD","EPOCH":"2025-12-02T06:17:06.641088","MEAN_MOTION":13.11417029,"ECCENTRICITY":0.00019771,"INCLINATION":87.8879,"RA_OF_ASC_NODE":60.2286,"ARG_OF_PERICENTER":107.2009,"MEAN_ANOMALY":252.9335,"EPHEMERIS_TYPE":0,"CLASSIFICATION_TYPE":"U","NORAD_CAT_ID":45451,"ELEMENT_SET_NO":999,"REV_AT_EPOCH":27677,"BSTAR":-0.0011528539,"MEAN_MOTION_DOT":-3.96e-6,"MEAN_MOTION_DDOT":0},{"OBJECT_NAME":"ONEWEB-0082","OBJECT_ID":"2020-020AE","EPOCH":"2025-12-02T06:12:25.633728","MEAN_MOTION":13.1141613,"ECCENTRICITY":0.00019032,"INCLINATION":87.888,"RA_OF_ASC_NODE":60.2546,"ARG_OF_PERICENTER":105.959,"MEAN_ANOMALY":254.1748,"EPHEMERIS_TYPE":0,"CLASSIFICATION_TYPE":"U","NORAD_CAT_ID":45452,"ELEMENT_SET_NO":999,"REV_AT_EPOCH":27686,"BSTAR":-0.0011461022,"MEAN_MOTION_DOT":-3.93e-6,"MEAN_MOTION_DDOT":0},{"OBJECT_NAME":"ONEWEB-0050","OBJECT_ID":"2020-020AF","EPOCH":"2025-12-02T05:26:39.250752","MEAN_MOTION":14.8942323,"ECCENTRICITY":0.00029841,"INCLINATION":88.9231,"RA_OF_ASC_NODE":260.0775,"ARG_OF_PERICENTER":17.8032,"MEAN_ANOMALY":342.33,"EPHEMERIS_TYPE":0,"CLASSIFICATION_TYPE":"U","NORAD_CAT_ID":45453,"ELEMENT_SET_NO":999,"REV_AT_EPOCH":31105,"BSTAR":0.00048645119,"MEAN_MOTION_DOT":4.642e-5,"MEAN_MOTION_DDOT":0},{"OBJECT_NAME":"ONEWEB-0034","OBJECT_ID":"2020-020AG","EPOCH":"2025-12-02T06:42:56.164608","MEAN_MOTION":13.11418115,"ECCENTRICITY":0.00017063,"INCLINATION":87.8872,"RA_OF_ASC_NODE":60.2655,"ARG_OF_PERICENTER":103.4561,"MEAN_ANOMALY":256.6757,"EPHEMERIS_TYPE":0,"CLASSIFICATION_TYPE":"U","NORAD_CAT_ID":45454,"ELEMENT_SET_NO":999,"REV_AT_EPOCH":27678,"BSTAR":-0.0011506032,"MEAN_MOTION_DOT":-3.95e-6,"MEAN_MOTION_DDOT":0}]
